STARLINK-31560          
1 59361U 24060P   26068.57596352 -.00000506  00000+0 -88704-5 0  9994
2 59361  43.0032 260.6500 0001084 262.1715  97.9014 15.27564558110048
FLOCK 4G-14             
1 62667U 25009BL  26068.75869712  .00011310  00000+0  42676-3 0  9993
2 62667  97.4064 151.1836 0003006 318.3639  41.7371 15.27197201 63711
